      2.10          N: GNSS NAV DATA                        RINEX VERSION / TYPE
fic2rin                                 09/28/2018 00:20:53 PGM / RUN BY / DATE
                                                            END OF HEADER
 1 18  9 28  0  0  0.0-9.342329576612e-05-4.661160346586e-12 0.000000000000e+00
    6.700000000000e+01 5.262500000000e+01 4.421612749348e-09 9.063814607574e-01
    2.665445208549e-06 8.126241737045e-03 7.025897502899e-06 5.153660953522e+03
    4.320000000000e+05-1.210719347000e-07 1.403374896700e+00 9.126961231232e-08
    9.723240058377e-01 2.509375000000e+02 6.972100529801e-01-8.146410759278e-09
    4.225175995540e-10 1.000000000000e+00 2.020000000000e+03 0.000000000000e+00
    2.400000000000e+00 0.000000000000e+00 5.587935447693e-09 6.700000000000e+01
    4.248060000000e+05 4.000000000000e+00
 8 18  9 28  0  0  0.0-1.166327856481e-04-1.364242052659e-12 0.000000000000e+00
    4.300000000000e+01-3.990625000000e+01 3.951593171145e-09-2.800450067312e+00
   -2.065673470497e-06 3.572791232727e-03 1.159310340881e-05 5.153636541367e+03
    4.320000000000e+05-2.235174179077e-08 3.380820621778e-01 5.029141902924e-08
    9.700282792171e-01 1.613125000000e+02-4.108577425370e-01-7.748537043384e-09
   -2.642967233051e-11 1.000000000000e+00 2.020000000000e+03 0.000000000000e+00
    2.400000000000e+00 0.000000000000e+00 5.122274160385e-09 4.300000000000e+01
    4.248060000000e+05 4.000000000000e+00
 5 18  9 28  0  0  0.0-1.513864845037e-06 3.410605131648e-13 0.000000000000e+00
    8.300000000000e+01-4.843750000000e+01 5.224860493555e-09-2.457738091777e+00
   -2.792105078697e-06 5.646803183481e-03 5.507841706276e-06 5.153783506393e+03
    4.320000000000e+05 4.842877388000e-08 2.423066169655e+00-7.636845111847e-08
    9.484944586357e-01 2.669375000000e+02 6.913054025477e-01-8.419279268204e-09
   -2.175090601254e-10 1.000000000000e+00 2.020000000000e+03 0.000000000000e+00
    2.400000000000e+00 0.000000000000e+00-1.117587089539e-08 8.300000000000e+01
    4.248060000000e+05 4.000000000000e+00
 3 18  9 28  0  0  0.0 1.419750042260e-04 4.888534022029e-12 0.000000000000e+00
    8.900000000000e+01-4.753125000000e+01 4.923776523627e-09-1.554912819560e-01
   -2.397224307060e-06 1.758995233104e-03 5.731359124184e-06 5.153665790558e+03
    4.320000000000e+05 7.450580596924e-09 2.446573836843e+00 9.313225746155e-09
    9.616303657989e-01 2.733750000000e+02 6.492883735584e-01-8.317132156224e-09
   -2.696540893180e-10 1.000000000000e+00 2.020000000000e+03 0.000000000000e+00
    2.400000000000e+00 0.000000000000e+00 1.862645149231e-09 8.900000000000e+01
    4.248060000000e+05 4.000000000000e+00
22 18  9 28  0  0  0.0-5.314662121236e-04-1.068656274583e-11 0.000000000000e+00
    9.000000000000e+00-4.518750000000e+01 5.723452690492e-09 2.346754639705e+00
   -2.430751919746e-06 7.058822200634e-03 4.706904292107e-06 5.153698616028e+03
    4.320000000000e+05 1.043081283569e-07 2.382452253191e+00-5.774199962616e-08
    9.257879482926e-01 2.725312500000e+02-1.479702574340e+00-8.622502018962e-09
   -2.603679882289e-10 1.000000000000e+00 2.020000000000e+03 0.000000000000e+00
    2.400000000000e+00 0.000000000000e+00-1.816079020500e-08 9.000000000000e+00
    4.248060000000e+05 4.000000000000e+00
27 18  9 28  0  0  0.0 3.405255265534e-04-4.092726157978e-12 0.000000000000e+00
    7.000000000000e+00-3.896875000000e+01 3.692296656119e-09 3.107175544002e+00
   -2.048909664154e-06 6.048754556105e-03 1.164339482784e-05 5.153701528549e+03
    4.320000000000e+05-3.539025783539e-08 3.475178808632e-01-3.166496753693e-08
    9.782524067451e-01 1.642812500000e+02 4.495820442910e-01-7.591030482604e-09
    1.392915163365e-11 1.000000000000e+00 2.020000000000e+03 0.000000000000e+00
    2.400000000000e+00 0.000000000000e+00 1.862645149231e-09 7.000000000000e+00
    4.248060000000e+05 4.000000000000e+00
28 18  9 28  0  0  0.0 7.468285039067e-04 2.160049916711e-12 0.000000000000e+00
    1.400000000000e+01-7.890625000000e+01 4.067669434759e-09-2.274470868475e+00
   -3.913417458534e-06 1.958335668314e-02 4.755333065987e-06 5.153685991287e+03
    4.320000000000e+05 2.235174179077e-07-6.078533299539e-01 1.322478055954e-07
    9.847235019836e-01 2.979062500000e+02-1.512732824423e+00-7.758537459942e-09
   -4.282321233011e-10 1.000000000000e+00 2.020000000000e+03 0.000000000000e+00
    2.400000000000e+00 0.000000000000e+00-1.117587089539e-08 1.400000000000e+01
    4.248060000000e+05 4.000000000000e+00
14 18  9 28  0  0  0.0-9.707361459732e-05 2.273736754432e-13 0.000000000000e+00
    4.900000000000e+01 1.718750000000e+01 4.303750697063e-09 2.831732340950e+00
    9.015202522278e-07 1.003978215158e-02 1.216121017933e-05 5.153637283325e+03
    4.320000000000e+05 5.215406417847e-08-2.712994445828e+00-1.266598701477e-07
    9.612586222229e-01 1.428437500000e+02-1.943440764863e+00-7.684248651229e-09
   -1.089331089298e-10 1.000000000000e+00 2.020000000000e+03 0.000000000000e+00
    2.400000000000e+00 0.000000000000e+00-9.778887033463e-09 4.900000000000e+01
    4.248060000000e+05 4.000000000000e+00
15 18  9 28  0  0  0.0-3.446913324296e-04 1.023181539495e-12 0.000000000000e+00
    6.300000000000e+01-6.875000000000e+00 5.147000107500e-09 2.185230508879e+00
   -3.445893526077e-07 1.077057619113e-02 1.280382275581e-05 5.153576862335e+03
    4.320000000000e+05-2.328306436539e-07-2.877588143051e+00-1.974403858185e-07
    9.286384719655e-01 1.165937500000e+02 7.079769296237e-01-8.194269895661e-09
   -2.228664261384e-10 1.000000000000e+00 2.020000000000e+03 0.000000000000e+00
    2.400000000000e+00 0.000000000000e+00-1.071020960808e-08 6.300000000000e+01
    4.248060000000e+05 4.000000000000e+00
13 18  9 28  0  0  0.0-8.827866986394e-05 7.958078640513e-13 0.000000000000e+00
    5.300000000000e+01 3.700000000000e+01 4.184817171576e-09 1.903491705167e+00
    1.931563019753e-06 3.429205389693e-03 1.324899494648e-05 5.153675645828e+03
    4.320000000000e+05 2.421438694000e-08-2.670266925804e+00-1.061707735062e-07
    9.686826769274e-01 1.273125000000e+02 1.456901512676e+00-7.733536418548e-09
   -4.357324357192e-11 1.000000000000e+00 2.020000000000e+03 0.000000000000e+00
    2.400000000000e+00 0.000000000000e+00-1.117587089539e-08 5.300000000000e+01
    4.248060000000e+05 4.000000000000e+00
17 18  9 28  0  0  0.0-5.074497312307e-05 4.433786671143e-12 0.000000000000e+00
    7.200000000000e+01-4.171875000000e+01 3.459429813423e-09 3.099365498362e+00
   -2.073124051094e-06 1.261362573132e-02 1.314282417297e-05 5.153627096176e+03
    4.320000000000e+05 1.154839992523e-07 4.022441496434e-01-5.587935447693e-08
    9.835918441484e-01 1.331250000000e+02-1.773685793178e+00-7.310661661260e-09
    3.750156209059e-11 1.000000000000e+00 2.020000000000e+03 0.000000000000e+00
    2.400000000000e+00 0.000000000000e+00-1.117587089539e-08 7.200000000000e+01
    4.248060000000e+05 4.000000000000e+00
11 18  9 28  0  0  0.0-7.145958952606e-04 3.069544618484e-12 0.000000000000e+00
    5.500000000000e+01 4.034375000000e+01 5.746310785481e-09 2.597080108411e-01
    2.009794116020e-06 1.699279947206e-02 9.732320904732e-06 5.153656597137e+03
    4.320000000000e+05-1.899898052216e-07 9.681900582822e-01-2.477318048477e-07
    9.066843096694e-01 1.672187500000e+02 1.821784826548e+00-8.919657253813e-09
    3.932306653499e-10 1.000000000000e+00 2.020000000000e+03 0.000000000000e+00
    2.400000000000e+00 0.000000000000e+00-1.210719347000e-08 5.500000000000e+01
    4.248060000000e+05 4.000000000000e+00
 7 18  9 28  0  0  0.0 1.165396533906e-04-6.707523425575e-12 0.000000000000e+00
    8.400000000000e+01 8.956250000000e+01 4.964492505326e-09 2.673169198741e-01
    4.775822162628e-06 1.209817850031e-02 5.118548870087e-06 5.153640235901e+03
    4.320000000000e+05 3.911554813385e-08-1.726544364040e+00 1.918524503708e-07
    9.572093586062e-01 2.769375000000e+02-2.489142346450e+00-8.603929816784e-09
    2.107230631757e-10 1.000000000000e+00 2.020000000000e+03 0.000000000000e+00
    2.400000000000e+00 0.000000000000e+00-1.117587089539e-08 8.400000000000e+01
    4.248060000000e+05 4.000000000000e+00
32 18  9 28  0  0  0.0-4.106122069061e-04 1.182343112305e-11 0.000000000000e+00
    4.100000000000e+01 7.468750000000e+00 4.459828626906e-09-2.434020014544e+00
    4.544854164124e-07 2.307911054231e-03 1.209788024426e-05 5.153714729309e+03
    4.320000000000e+05 0.000000000000e+00-2.798219844311e+00-4.842877388000e-08
    9.574334630268e-01 1.441250000000e+02-2.559695855710e+00-7.901043395886e-09
   -1.414344627416e-10 1.000000000000e+00 2.020000000000e+03 0.000000000000e+00
    2.400000000000e+00 0.000000000000e+00 4.656612873077e-10 4.100000000000e+01
    4.248060000000e+05 4.000000000000e+00
16 18  9 28  0  0  0.0 6.948132067919e-06-1.818989403546e-12 0.000000000000e+00
    4.700000000000e+01-7.131250000000e+01 4.100527946305e-09-2.211729258373e+00
   -3.686174750328e-06 1.001801306847e-02 4.952773451805e-06 5.153701900482e+03
    4.320000000000e+05 8.568167686462e-08-6.120034061812e-01-1.322478055954e-07
    9.858224328785e-01 2.970312500000e+02 5.205618712857e-01-7.983546832485e-09
   -3.096557555480e-10 1.000000000000e+00 2.020000000000e+03 0.000000000000e+00
    2.400000000000e+00 0.000000000000e+00-1.071020960808e-08 4.700000000000e+01
    4.248060000000e+05 4.000000000000e+00
25 18  9 28  0  0  0.0-6.534974090755e-04-5.684341886081e-12 0.000000000000e+00
    1.020000000000e+02-5.953125000000e+01 4.616978029953e-09-7.296690057572e-01
   -3.177672624588e-06 7.472450612113e-03 3.915280103683e-06 5.153584482193e+03
    4.320000000000e+05 3.725290298462e-08-6.922013052828e-01 2.030283212662e-07
    9.729197119312e-01 3.090937500000e+02 8.608274001394e-01-8.436779997180e-09
   -4.528760069606e-10 1.000000000000e+00 2.020000000000e+03 0.000000000000e+00
    3.400000000000e+00 0.000000000000e+00 5.587935447693e-09 1.020000000000e+02
    4.248060000000e+05 4.000000000000e+00
